CCSDS_OMM_VERS = 2.0
CREATION_DATE  = 
ORIGINATOR     = 

OBJECT_NAME    = STARLINK-36723
OBJECT_ID      = 2026-036M
CENTER_NAME    = EARTH
REF_FRAME      = TEME
TIME_SYSTEM    = UTC
MEAN_ELEMENT_THEORY = SGP/SGP4

EPOCH          = 2026-02-27T16:00:03.999744
MEAN_MOTION    = 15.96347482
ECCENTRICITY   = .0001936
INCLINATION    = 42.9971
RA_OF_ASC_NODE = 311.4342
ARG_OF_PERICENTER = 262.2023
MEAN_ANOMALY   = 339.6147

EPHEMERIS_TYPE = 0
CLASSIFICATION_TYPE = U
NORAD_CAT_ID   = 67915
ELEMENT_SET_NO = 999
REV_AT_EPOCH   = 203
BSTAR          = -.33842E-2
MEAN_MOTION_DOT = -.1464169E-1
MEAN_MOTION_DDOT = .63383E-3

CCSDS_OMM_VERS = 2.0
CREATION_DATE  = 
ORIGINATOR     = 

OBJECT_NAME    = STARLINK-36721
OBJECT_ID      = 2026-036N
CENTER_NAME    = EARTH
REF_FRAME      = TEME
TIME_SYSTEM    = UTC
MEAN_ELEMENT_THEORY = SGP/SGP4

EPOCH          = 2026-02-27T16:00:03.999744
MEAN_MOTION    = 15.96633463
ECCENTRICITY   = .0001849
INCLINATION    = 42.9971
RA_OF_ASC_NODE = 311.4257
ARG_OF_PERICENTER = 261.4922
MEAN_ANOMALY   = 343.7262

EPHEMERIS_TYPE = 0
CLASSIFICATION_TYPE = U
NORAD_CAT_ID   = 67916
ELEMENT_SET_NO = 999
REV_AT_EPOCH   = 203
BSTAR          = -.33034E-2
MEAN_MOTION_DOT = -.1451971E-1
MEAN_MOTION_DDOT = .626E-3

CCSDS_OMM_VERS = 2.0
CREATION_DATE  = 
ORIGINATOR     = 

OBJECT_NAME    = STARLINK-36722
OBJECT_ID      = 2026-036P
CENTER_NAME    = EARTH
REF_FRAME      = TEME
TIME_SYSTEM    = UTC
MEAN_ELEMENT_THEORY = SGP/SGP4

EPOCH          = 2026-02-27T16:00:03.999744
MEAN_MOTION    = 15.96774171
ECCENTRICITY   = .0001951
INCLINATION    = 42.9971
RA_OF_ASC_NODE = 311.4216
ARG_OF_PERICENTER = 259.7775
MEAN_ANOMALY   = 347.0477

EPHEMERIS_TYPE = 0
CLASSIFICATION_TYPE = U
NORAD_CAT_ID   = 67917
ELEMENT_SET_NO = 999
REV_AT_EPOCH   = 203
BSTAR          = -.32685E-2
MEAN_MOTION_DOT = -.1447878E-1
MEAN_MOTION_DDOT = .62367E-3

CCSDS_OMM_VERS = 2.0
CREATION_DATE  = 
ORIGINATOR     = 

OBJECT_NAME    = STARLINK-36341
OBJECT_ID      = 2026-036Q
CENTER_NAME    = EARTH
REF_FRAME      = TEME
TIME_SYSTEM    = UTC
MEAN_ELEMENT_THEORY = SGP/SGP4

EPOCH          = 2026-02-27T16:00:03.999744
MEAN_MOTION    = 15.97054555
ECCENTRICITY   = .0001947
INCLINATION    = 42.9971
RA_OF_ASC_NODE = 311.4132
ARG_OF_PERICENTER = 261.1564
MEAN_ANOMALY   = 348.9348

EPHEMERIS_TYPE = 0
CLASSIFICATION_TYPE = U
NORAD_CAT_ID   = 67918
ELEMENT_SET_NO = 999
REV_AT_EPOCH   = 203
BSTAR          = -.32013E-2
MEAN_MOTION_DOT = -.1440303E-1
MEAN_MOTION_DDOT = .61948E-3

CCSDS_OMM_VERS = 2.0
CREATION_DATE  = 
ORIGINATOR     = 

OBJECT_NAME    = STARLINK-36663
OBJECT_ID      = 2026-036R
CENTER_NAME    = EARTH
REF_FRAME      = TEME
TIME_SYSTEM    = UTC
MEAN_ELEMENT_THEORY = SGP/SGP4

EPOCH          = 2026-02-27T16:00:03.999744
MEAN_MOTION    = 15.96914748
ECCENTRICITY   = .0001907
INCLINATION    = 42.9972
RA_OF_ASC_NODE = 311.4174
ARG_OF_PERICENTER = 261.6441
MEAN_ANOMALY   = 346.8160

EPHEMERIS_TYPE = 0
CLASSIFICATION_TYPE = U
NORAD_CAT_ID   = 67919
ELEMENT_SET_NO = 999
REV_AT_EPOCH   = 203
BSTAR          = -.32357E-2
MEAN_MOTION_DOT = -.1444505E-1
MEAN_MOTION_DDOT = .6219E-3

CCSDS_OMM_VERS = 2.0
CREATION_DATE  = 
ORIGINATOR     = 

OBJECT_NAME    = STARLINK-36375
OBJECT_ID      = 2026-036S
CENTER_NAME    = EARTH
REF_FRAME      = TEME
TIME_SYSTEM    = UTC
MEAN_ELEMENT_THEORY = SGP/SGP4

EPOCH          = 2026-02-27T16:00:03.999744
MEAN_MOTION    = 15.97198449
ECCENTRICITY   = .0001804
INCLINATION    = 42.9972
RA_OF_ASC_NODE = 311.4090
ARG_OF_PERICENTER = 259.3145
MEAN_ANOMALY   = 352.5140

EPHEMERIS_TYPE = 0
CLASSIFICATION_TYPE = U
NORAD_CAT_ID   = 67920
ELEMENT_SET_NO = 999
REV_AT_EPOCH   = 203
BSTAR          = -.31622E-2
MEAN_MOTION_DOT = -.1434136E-1
MEAN_MOTION_DDOT = .61554E-3

CCSDS_OMM_VERS = 2.0
CREATION_DATE  = 
ORIGINATOR     = 

OBJECT_NAME    = STARLINK-36405
OBJECT_ID      = 2026-036T
CENTER_NAME    = EARTH
REF_FRAME      = TEME
TIME_SYSTEM    = UTC
MEAN_ELEMENT_THEORY = SGP/SGP4

EPOCH          = 2026-02-27T16:00:03.999744
MEAN_MOTION    = 15.97325480
ECCENTRICITY   = .0001928
INCLINATION    = 42.9972
RA_OF_ASC_NODE = 311.4052
ARG_OF_PERICENTER = 258.8645
MEAN_ANOMALY   = 354.4601

EPHEMERIS_TYPE = 0
CLASSIFICATION_TYPE = U
NORAD_CAT_ID   = 67921
ELEMENT_SET_NO = 999
REV_AT_EPOCH   = 203
BSTAR          = -.31203E-2
MEAN_MOTION_DOT = -.1425274E-1
MEAN_MOTION_DDOT = .60938E-3

CCSDS_OMM_VERS = 2.0
CREATION_DATE  = 
ORIGINATOR     = 

OBJECT_NAME    = STARLINK-36383
OBJECT_ID      = 2026-036U
CENTER_NAME    = EARTH
REF_FRAME      = TEME
TIME_SYSTEM    = UTC
MEAN_ELEMENT_THEORY = SGP/SGP4

EPOCH          = 2026-02-27T16:00:03.999744
MEAN_MOTION    = 15.97476747
ECCENTRICITY   = .0001919
INCLINATION    = 42.9974
RA_OF_ASC_NODE = 311.4008
ARG_OF_PERICENTER = 261.8099
MEAN_ANOMALY   = 353.2684

EPHEMERIS_TYPE = 0
CLASSIFICATION_TYPE = U
NORAD_CAT_ID   = 67922
ELEMENT_SET_NO = 999
REV_AT_EPOCH   = 203
BSTAR          = -.31005E-2
MEAN_MOTION_DOT = -.1428114E-1
MEAN_MOTION_DDOT = .61257E-3

CCSDS_OMM_VERS = 2.0
CREATION_DATE  = 
ORIGINATOR     = 

OBJECT_NAME    = STARLINK-36406
OBJECT_ID      = 2026-036V
CENTER_NAME    = EARTH
REF_FRAME      = TEME
TIME_SYSTEM    = UTC
MEAN_ELEMENT_THEORY = SGP/SGP4

EPOCH          = 2026-02-27T16:00:03.999744
MEAN_MOTION    = 15.97607598
ECCENTRICITY   = .0001868
INCLINATION    = 42.9973
RA_OF_ASC_NODE = 311.3969
ARG_OF_PERICENTER = 263.8570
MEAN_ANOMALY   = 352.7826

EPHEMERIS_TYPE = 0
CLASSIFICATION_TYPE = U
NORAD_CAT_ID   = 67923
ELEMENT_SET_NO = 999
REV_AT_EPOCH   = 203
BSTAR          = -.30608E-2
MEAN_MOTION_DOT = -.1420219E-1
MEAN_MOTION_DDOT = .60719E-3

CCSDS_OMM_VERS = 2.0
CREATION_DATE  = 
ORIGINATOR     = 

OBJECT_NAME    = STARLINK-36714
OBJECT_ID      = 2026-036W
CENTER_NAME    = EARTH
REF_FRAME      = TEME
TIME_SYSTEM    = UTC
MEAN_ELEMENT_THEORY = SGP/SGP4

EPOCH          = 2026-02-27T16:00:03.999744
MEAN_MOTION    = 15.97740692
ECCENTRICITY   = .0001914
INCLINATION    = 42.9973
RA_OF_ASC_NODE = 311.3929
ARG_OF_PERICENTER = 263.3150
MEAN_ANOMALY   = 354.8645

EPHEMERIS_TYPE = 0
CLASSIFICATION_TYPE = U
NORAD_CAT_ID   = 67924
ELEMENT_SET_NO = 999
REV_AT_EPOCH   = 203
BSTAR          = -.30301E-2
MEAN_MOTION_DOT = -.1416503E-1
MEAN_MOTION_DDOT = .60512E-3

CCSDS_OMM_VERS = 2.0
CREATION_DATE  = 
ORIGINATOR     = 

OBJECT_NAME    = STARLINK-36726
OBJECT_ID      = 2026-036X
CENTER_NAME    = EARTH
REF_FRAME      = TEME
TIME_SYSTEM    = UTC
MEAN_ELEMENT_THEORY = SGP/SGP4

EPOCH          = 2026-02-27T16:00:03.999744
MEAN_MOTION    = 15.97862227
ECCENTRICITY   = .0001919
INCLINATION    = 42.9973
RA_OF_ASC_NODE = 311.3895
ARG_OF_PERICENTER = 260.6142
MEAN_ANOMALY   = 358.9562

EPHEMERIS_TYPE = 0
CLASSIFICATION_TYPE = U
NORAD_CAT_ID   = 67925
ELEMENT_SET_NO = 999
REV_AT_EPOCH   = 203
BSTAR          = -.29931E-2
MEAN_MOTION_DOT = -.1408815E-1
MEAN_MOTION_DDOT = .59987E-3

CCSDS_OMM_VERS = 2.0
CREATION_DATE  = 
ORIGINATOR     = 

OBJECT_NAME    = STARLINK-36758
OBJECT_ID      = 2026-036Y
CENTER_NAME    = EARTH
REF_FRAME      = TEME
TIME_SYSTEM    = UTC
MEAN_ELEMENT_THEORY = SGP/SGP4

EPOCH          = 2026-02-27T16:00:03.999744
MEAN_MOTION    = 15.97998247
ECCENTRICITY   = .0001936
INCLINATION    = 42.9971
RA_OF_ASC_NODE = 311.3852
ARG_OF_PERICENTER = 261.8916
MEAN_ANOMALY   = 359.2735

EPHEMERIS_TYPE = 0
CLASSIFICATION_TYPE = U
NORAD_CAT_ID   = 67926
ELEMENT_SET_NO = 999
REV_AT_EPOCH   = 203
BSTAR          = -.29715E-2
MEAN_MOTION_DOT = -.1409334E-1
MEAN_MOTION_DDOT = .60113E-3

CCSDS_OMM_VERS = 2.0
CREATION_DATE  = 
ORIGINATOR     = 

OBJECT_NAME    = STARLINK-36728
OBJECT_ID      = 2026-036Z
CENTER_NAME    = EARTH
REF_FRAME      = TEME
TIME_SYSTEM    = UTC
MEAN_ELEMENT_THEORY = SGP/SGP4

EPOCH          = 2026-02-27T16:00:03.999744
MEAN_MOTION    = 15.98276724
ECCENTRICITY   = .000196
INCLINATION    = 42.9972
RA_OF_ASC_NODE = 311.3764
ARG_OF_PERICENTER = 262.8082
MEAN_ANOMALY   = 1.7793

EPHEMERIS_TYPE = 0
CLASSIFICATION_TYPE = U
NORAD_CAT_ID   = 67927
ELEMENT_SET_NO = 999
REV_AT_EPOCH   = 203
BSTAR          = -.2906E-2
MEAN_MOTION_DOT = -.140008E-1
MEAN_MOTION_DDOT = .59564E-3

CCSDS_OMM_VERS = 2.0
CREATION_DATE  = 
ORIGINATOR     = 

OBJECT_NAME    = STARLINK-36771
OBJECT_ID      = 2026-036AA
CENTER_NAME    = EARTH
REF_FRAME      = TEME
TIME_SYSTEM    = UTC
MEAN_ELEMENT_THEORY = SGP/SGP4

EPOCH          = 2026-02-27T16:00:03.999744
MEAN_MOTION    = 15.98151096
ECCENTRICITY   = .0001911
INCLINATION    = 42.9971
RA_OF_ASC_NODE = 311.3803
ARG_OF_PERICENTER = 261.6878
MEAN_ANOMALY   = 1.3684

EPHEMERIS_TYPE = 0
CLASSIFICATION_TYPE = U
NORAD_CAT_ID   = 67928
ELEMENT_SET_NO = 999
REV_AT_EPOCH   = 203
BSTAR          = -.29406E-2
MEAN_MOTION_DOT = -.1406706E-1
MEAN_MOTION_DDOT = .60003E-3

CCSDS_OMM_VERS = 2.0
CREATION_DATE  = 
ORIGINATOR     = 

OBJECT_NAME    = STARLINK-36809
OBJECT_ID      = 2026-036AB
CENTER_NAME    = EARTH
REF_FRAME      = TEME
TIME_SYSTEM    = UTC
MEAN_ELEMENT_THEORY = SGP/SGP4

EPOCH          = 2026-02-27T16:00:03.999744
MEAN_MOTION    = 15.98415032
ECCENTRICITY   = .0001962
INCLINATION    = 42.9972
RA_OF_ASC_NODE = 311.3723
ARG_OF_PERICENTER = 257.2482
MEAN_ANOMALY   = 8.9946

EPHEMERIS_TYPE = 0
CLASSIFICATION_TYPE = U
NORAD_CAT_ID   = 67929
ELEMENT_SET_NO = 999
REV_AT_EPOCH   = 203
BSTAR          = -.28728E-2
MEAN_MOTION_DOT = -.1394942E-1
MEAN_MOTION_DDOT = .5925E-3

